{"fetched_at":"2026-07-10T07:58:39.953Z","source":"https://celestrak.org/NORAD/elements/gp.php?GROUP=kuiper&FORMAT=JSON","constellation":"kuiper","records":[{"OBJECT_NAME":"KUIPER-00096","OBJECT_ID":"2025-171D","EPOCH":"2026-07-09T16:53:32.227008","CLASSIFICATION_TYPE":"U","MEAN_MOTION":14.79935783,"ECCENTRICITY":0.0000492,"INCLINATION":51.9005,"RA_OF_ASC_NODE":338.5264,"ARG_OF_PERICENTER":111.7505,"MEAN_ANOMALY":248.351,"EPHEMERIS_TYPE":0,"NORAD_CAT_ID":65135,"ELEMENT_SET_NO":999,"REV_AT_EPOCH":5096,"BSTAR":0.00033148,"MEAN_MOTION_DOT":0.00002307,"MEAN_MOTION_DDOT":0},{"OBJECT_NAME":"KUIPER-00097","OBJECT_ID":"2025-171E","EPOCH":"2026-07-09T16:49:41.247840","CLASSIFICATION_TYPE":"U","MEAN_MOTION":14.79931309,"ECCENTRICITY":0.0000682,"INCLINATION":51.9025,"RA_OF_ASC_NODE":341.1933,"ARG_OF_PERICENTER":110.9073,"MEAN_ANOMALY":249.1962,"EPHEMERIS_TYPE":0,"NORAD_CAT_ID":65136,"ELEMENT_SET_NO":999,"REV_AT_EPOCH":5091,"BSTAR":0.000331,"MEAN_MOTION_DOT":0.00002303,"MEAN_MOTION_DDOT":0},{"OBJECT_NAME":"KUIPER-00098","OBJECT_ID":"2025-171F","EPOCH":"2026-07-08T16:27:08.274816","CLASSIFICATION_TYPE":"U","MEAN_MOTION":14.79927485,"ECCENTRICITY":0.00004939,"INCLINATION":51.901,"RA_OF_ASC_NODE":348.0505,"ARG_OF_PERICENTER":83.2517,"MEAN_ANOMALY":276.8501,"EPHEMERIS_TYPE":0,"NORAD_CAT_ID":65137,"ELEMENT_SET_NO":999,"REV_AT_EPOCH":5008,"BSTAR":0.00035375622,"MEAN_MOTION_DOT":0.00002476,"MEAN_MOTION_DDOT":0},{"OBJECT_NAME":"KUIPER-00099","OBJECT_ID":"2025-171G","EPOCH":"2026-07-09T16:12:41.423616","CLASSIFICATION_TYPE":"U","MEAN_MOTION":14.79934393,"ECCENTRICITY":0.0000583,"INCLINATION":51.9026,"RA_OF_ASC_NODE":333.6766,"ARG_OF_PERICENTER":105.6166,"MEAN_ANOMALY":254.4861,"EPHEMERIS_TYPE":0,"NORAD_CAT_ID":65138,"ELEMENT_SET_NO":999,"REV_AT_EPOCH":5102,"BSTAR":0.0003535,"MEAN_MOTION_DOT":0.00002475,"MEAN_MOTION_DDOT":0},{"OBJECT_NAME":"KUIPER-00100","OBJECT_ID":"2025-171H","EPOCH":"2026-07-09T18:42:24.676992","CLASSIFICATION_TYPE":"U","MEAN_MOTION":14.79934472,"ECCENTRICITY":0.000049,"INCLINATION":51.9024,"RA_OF_ASC_NODE":330.6876,"ARG_OF_PERICENTER":96.3088,"MEAN_ANOMALY":263.793,"EPHEMERIS_TYPE":0,"NORAD_CAT_ID":65139,"ELEMENT_SET_NO":999,"REV_AT_EPOCH":5107,"BSTAR":0.00034303,"MEAN_MOTION_DOT":0.00002395,"MEAN_MOTION_DDOT":0},{"OBJECT_NAME":"KUIPER-00102","OBJECT_ID":"2025-171J","EPOCH":"2026-07-08T16:42:39.804192","CLASSIFICATION_TYPE":"U","MEAN_MOTION":14.79926544,"ECCENTRICITY":0.00005759,"INCLINATION":51.899,"RA_OF_ASC_NODE":337.9663,"ARG_OF_PERICENTER":84.7621,"MEAN_ANOMALY":275.3407,"EPHEMERIS_TYPE":0,"NORAD_CAT_ID":65140,"ELEMENT_SET_NO":999,"REV_AT_EPOCH":5087,"BSTAR":0.00034640717,"MEAN_MOTION_DOT":0.0000242,"MEAN_MOTION_DDOT":0},{"OBJECT_NAME":"KUIPER-00103","OBJECT_ID":"2025-171K","EPOCH":"2026-07-09T17:22:44.642784","CLASSIFICATION_TYPE":"U","MEAN_MOTION":14.79933891,"ECCENTRICITY":0.0000534,"INCLINATION":51.8993,"RA_OF_ASC_NODE":350.9193,"ARG_OF_PERICENTER":104.1955,"MEAN_ANOMALY":255.9067,"EPHEMERIS_TYPE":0,"NORAD_CAT_ID":65141,"ELEMENT_SET_NO":999,"REV_AT_EPOCH":5078,"BSTAR":0.00032841,"MEAN_MOTION_DOT":0.00002283,"MEAN_MOTION_DDOT":0},{"OBJECT_NAME":"KUIPER-00104","OBJECT_ID":"2025-171L","EPOCH":"2026-07-09T16:04:55.355232","CLASSIFICATION_TYPE":"U","MEAN_MOTION":14.79927147,"ECCENTRICITY":0.0000516,"INCLINATION":51.9019,"RA_OF_ASC_NODE":338.6564,"ARG_OF_PERICENTER":102.5768,"MEAN_ANOMALY":257.5252,"EPHEMERIS_TYPE":0,"NORAD_CAT_ID":65142,"ELEMENT_SET_NO":999,"REV_AT_EPOCH":5095,"BSTAR":0.00036944,"MEAN_MOTION_DOT":0.00002596,"MEAN_MOTION_DDOT":0},{"OBJECT_NAME":"KUIPER-00105","OBJECT_ID":"2025-171M","EPOCH":"2026-07-09T16:41:54.902112","CLASSIFICATION_TYPE":"U","MEAN_MOTION":14.79927065,"ECCENTRICITY":0.0000664,"INCLINATION":51.9008,"RA_OF_ASC_NODE":346.145,"ARG_OF_PERICENTER":109.5008,"MEAN_ANOMALY":250.6026,"EPHEMERIS_TYPE":0,"NORAD_CAT_ID":65143,"ELEMENT_SET_NO":999,"REV_AT_EPOCH":5085,"BSTAR":0.00034516,"MEAN_MOTION_DOT":0.00002411,"MEAN_MOTION_DDOT":0},{"OBJECT_NAME":"KUIPER-00106","OBJECT_ID":"2025-171N","EPOCH":"2026-07-09T16:14:08.425824","CLASSIFICATION_TYPE":"U","MEAN_MOTION":14.79932977,"ECCENTRICITY":0.0000599,"INCLINATION":51.9013,"RA_OF_ASC_NODE":324.9921,"ARG_OF_PERICENTER":113.4763,"MEAN_ANOMALY":246.6262,"EPHEMERIS_TYPE":0,"NORAD_CAT_ID":65144,"ELEMENT_SET_NO":999,"REV_AT_EPOCH":5115,"BSTAR":0.00035217,"MEAN_MOTION_DOT":0.00002465,"MEAN_MOTION_DDOT":0},{"OBJECT_NAME":"KUIPER-00107","OBJECT_ID":"2025-171P","EPOCH":"2026-07-09T15:31:50.750688","CLASSIFICATION_TYPE":"U","MEAN_MOTION":14.79925945,"ECCENTRICITY":0.0000576,"INCLINATION":51.902,"RA_OF_ASC_NODE":328.8019,"ARG_OF_PERICENTER":107.2441,"MEAN_ANOMALY":252.8585,"EPHEMERIS_TYPE":0,"NORAD_CAT_ID":65145,"ELEMENT_SET_NO":999,"REV_AT_EPOCH":5109,"BSTAR":0.00034867,"MEAN_MOTION_DOT":0.00002437,"MEAN_MOTION_DDOT":0},{"OBJECT_NAME":"KUIPER-00108","OBJECT_ID":"2025-171Q","EPOCH":"2026-07-08T17:19:39.158400","CLASSIFICATION_TYPE":"U","MEAN_MOTION":14.79927907,"ECCENTRICITY":0.00005845,"INCLINATION":51.9023,"RA_OF_ASC_NODE":345.4279,"ARG_OF_PERICENTER":101.1288,"MEAN_ANOMALY":258.974,"EPHEMERIS_TYPE":0,"NORAD_CAT_ID":65146,"ELEMENT_SET_NO":999,"REV_AT_EPOCH":5078,"BSTAR":0.00035527654,"MEAN_MOTION_DOT":0.00002488,"MEAN_MOTION_DDOT":0},{"OBJECT_NAME":"KUIPER-00109","OBJECT_ID":"2025-171R","EPOCH":"2026-07-09T16:57:25.850880","CLASSIFICATION_TYPE":"U","MEAN_MOTION":14.79923218,"ECCENTRICITY":0.0000647,"INCLINATION":51.9028,"RA_OF_ASC_NODE":336.0171,"ARG_OF_PERICENTER":109.5346,"MEAN_ANOMALY":250.5686,"EPHEMERIS_TYPE":0,"NORAD_CAT_ID":65147,"ELEMENT_SET_NO":999,"REV_AT_EPOCH":5099,"BSTAR":0.00034637,"MEAN_MOTION_DOT":0.0000242,"MEAN_MOTION_DDOT":0},{"OBJECT_NAME":"KUIPER-00110","OBJECT_ID":"2025-171S","EPOCH":"2026-07-09T17:26:38.761728","CLASSIFICATION_TYPE":"U","MEAN_MOTION":14.79933339,"ECCENTRICITY":0.0000649,"INCLINATION":51.9013,"RA_OF_ASC_NODE":348.4873,"ARG_OF_PERICENTER":110.4555,"MEAN_ANOMALY":249.6477,"EPHEMERIS_TYPE":0,"NORAD_CAT_ID":65148,"ELEMENT_SET_NO":999,"REV_AT_EPOCH":5081,"BSTAR":0.00033918,"MEAN_MOTION_DOT":0.00002365,"MEAN_MOTION_DDOT":0},{"OBJECT_NAME":"KUIPER-00111","OBJECT_ID":"2025-171T","EPOCH":"2026-07-09T18:07:28.778016","CLASSIFICATION_TYPE":"U","MEAN_MOTION":14.79927065,"ECCENTRICITY":0.0000682,"INCLINATION":51.8982,"RA_OF_ASC_NODE":353.2404,"ARG_OF_PERICENTER":107.9545,"MEAN_ANOMALY":252.1492,"EPHEMERIS_TYPE":0,"NORAD_CAT_ID":65149,"ELEMENT_SET_NO":999,"REV_AT_EPOCH":5075,"BSTAR":0.00034045,"MEAN_MOTION_DOT":0.00002375,"MEAN_MOTION_DDOT":0},{"OBJECT_NAME":"KUIPER-00112","OBJECT_ID":"2025-171U","EPOCH":"2026-07-09T16:08:49.342848","CLASSIFICATION_TYPE":"U","MEAN_MOTION":14.79925546,"ECCENTRICITY":0.0000627,"INCLINATION":51.902,"RA_OF_ASC_NODE":336.2153,"ARG_OF_PERICENTER":110.2339,"MEAN_ANOMALY":249.8691,"EPHEMERIS_TYPE":0,"NORAD_CAT_ID":65150,"ELEMENT_SET_NO":999,"REV_AT_EPOCH":5098,"BSTAR":0.00035188,"MEAN_MOTION_DOT":0.00002462,"MEAN_MOTION_DDOT":0}]}
