KUIPER-00096            
1 65135U 25171D   26190.70384522  .00002307  00000+0  33148-3 0  9998
2 65135  51.9005 338.5264 0000492 111.7505 248.3510 14.79935783 50967
KUIPER-00097            
1 65136U 25171E   26190.70117185  .00002303  00000+0  33100-3 0  9992
2 65136  51.9025 341.1933 0000682 110.9073 249.1962 14.79931309 50910
KUIPER-00098            
1 65137U 25171F   26189.68551244  .00002476  00000+0  35376-3 0  9994
2 65137  51.9010 348.0505 0000493  83.2517 276.8501 14.79927485 50085
KUIPER-00099            
1 65138U 25171G   26190.67547944  .00002475  00000+0  35350-3 0  9999
2 65138  51.9026 333.6766 0000583 105.6166 254.4861 14.79934393 51023
KUIPER-00100            
1 65139U 25171H   26190.77945228  .00002395  00000+0  34303-3 0  9996
2 65139  51.9024 330.6876 0000490  96.3088 263.7930 14.79934472 51070
KUIPER-00102            
1 65140U 25171J   26189.69629403  .00002420  00000+0  34641-3 0  9995
2 65140  51.8990 337.9663 0000575  84.7621 275.3407 14.79926544 50871
KUIPER-00103            
1 65141U 25171K   26190.72412781  .00002283  00000+0  32841-3 0  9998
2 65141  51.8993 350.9193 0000534 104.1955 255.9067 14.79933891 50789
KUIPER-00104            
1 65142U 25171L   26190.67008513  .00002596  00000+0  36944-3 0  9992
2 65142  51.9019 338.6564 0000516 102.5768 257.5252 14.79927147 50959
KUIPER-00105            
1 65143U 25171M   26190.69577433  .00002411  00000+0  34516-3 0  9996
2 65143  51.9008 346.1450 0000664 109.5008 250.6026 14.79927065 50855
KUIPER-00106            
1 65144U 25171N   26190.67648641  .00002465  00000+0  35217-3 0  9993
2 65144  51.9013 324.9921 0000599 113.4763 246.6262 14.79932977 51157
KUIPER-00107            
1 65145U 25171P   26190.64711517  .00002437  00000+0  34867-3 0  9993
2 65145  51.9020 328.8019 0000576 107.2441 252.8585 14.79925945 51093
KUIPER-00108            
1 65146U 25171Q   26189.72198100  .00002488  00000+0  35528-3 0  9999
2 65146  51.9023 345.4279 0000584 101.1288 258.9740 14.79927907 50786
KUIPER-00109            
1 65147U 25171R   26190.70654920  .00002420  00000+0  34637-3 0  9993
2 65147  51.9028 336.0171 0000647 109.5346 250.5686 14.79923218 50997
KUIPER-00110            
1 65148U 25171S   26190.72683752  .00002365  00000+0  33918-3 0  9990
2 65148  51.9013 348.4873 0000649 110.4555 249.6477 14.79933339 50816
KUIPER-00111            
1 65149U 25171T   26190.75519419  .00002375  00000+0  34045-3 0  9995
2 65149  51.8982 353.2404 0000682 107.9545 252.1492 14.79927065 50750
KUIPER-00112            
1 65150U 25171U   26190.67279332  .00002462  00000+0  35188-3 0  9991
2 65150  51.9020 336.2153 0000627 110.2339 249.8691 14.79925546 50986
